2026-05-17 19:12:22 | INFO | strands_evaluation.helper.logger | Logging to: log-kramabench/modes/openai_gpt-5-mini/search_d_results_i_pland_k5_skills_off/tasks-mini-kramabench/k-2-d-2-s-2/task_1.log
2026-05-17 19:12:24 | INFO | strands_evaluation.agent_with_mode | Starting task 1: Using TLE data fetched for Starlink satellites 58214, calculate the average rate...
2026-05-17 19:12:24 | INFO | strands_evaluation.agent_with_mode | ============================================================
2026-05-17 19:12:24 | INFO | strands_evaluation.agent_with_mode | NEW TASK: gpt-5-mini
2026-05-17 19:12:24 | DEBUG | strands_evaluation.agent_with_mode | QUESTION: Using TLE data fetched for Starlink satellites 58214, calculate the average rate of semi-major axis decay (km/day) for the Gannon storm (May 10-13, 2024) and the preceding quiet period (May 1-4, 2024). Use earth's gravitational paremeter mu = 398600.4418 km^3/s^2, earth radius 6371.0 km, and Kepler's law as a rough estimate of the semi-major axis length. Report in a pair of numbers: (average_quiet_rate_km_day, average_storm_rate_km_day). The tle files are located in input/space-track/, with format <NORAD_ID>_storm.csv and <NORAD_ID>_quiet.csv. Write your answer as [ANSWER].
2026-05-17 19:12:24 | INFO | strands_evaluation.agent_with_mode | ============================================================
2026-05-17 19:12:24 | INFO | strands_evaluation.agent_with_mode | Ablation modes active: search_tool=standard search_results=ideal agent_management=standard plan_skills=off
2026-05-17 19:12:24 | DEBUG | strands_evaluation.instrumentation.agent_plugins | Event loop initialized
2026-05-17 19:12:24 | INFO | strands_evaluation.instrumentation.agent_plugins | 
--- Turn 1 (elapsed: 0.0s) ---
2026-05-17 19:12:27 | DEBUG | strands_evaluation.instrumentation.agent_plugins | Model response #1 [stop_reason=tool_use]
2026-05-17 19:12:27 | DEBUG | strands_evaluation.instrumentation.agent_plugins | Model response #1 [role=assistant block=1 tool_use] search_value({"query": "58214 storm.csv Starlink TLE input/space-track 58214_storm.csv 58214_quiet.csv"}) [toolUseId=call_sL2hozgHCvn7hCiBkJveYh4e]
2026-05-17 19:12:27 | INFO | strands_evaluation.instrumentation.agent_plugins | Executing: search_value({"query": "58214 storm.csv Starlink TLE input/space-track 58214_storm.csv 58214_quiet.csv"})
2026-05-17 19:12:28 | DEBUG | strands_evaluation.instrumentation.agent_plugins | Tool result: {"results": [{"dataset_id": "kramabench-astronomy-easy-6", "s3_uri": "s3://sana-kramabench/datagov/kramabench-astronomy-easy-6/files/space-track/58214_storm.csv", "type": "csv"}, {"dataset_id": "kramabench-astronomy-easy-6", "s3_uri": "s3://sana-kramabench/datagov/kramabench-astronomy-easy-6/files/space-track/58214_quiet.csv", "type": "csv"}, {"dataset_id": "kramabench-astronomy-easy-3", "s3_uri": "s3://sana-kramabench/datagov/kramabench-astronomy-easy-3/files/STORM-AI/warmup/v2/Sat_Density/swarma-wu232-20151222_to_20151225.csv", "type": "csv"}, {"dataset_id": "kramabench-astronomy-hard-9", "s3_uri": "s3://sana-kramabench/datagov/kramabench-astronomy-hard-9/files/TLE/43180.tle", "type": "tle"}, {"dataset_id": "kramabench-astronomy-easy-3", "s3_uri": "s3://sana-kramabench/datagov/kramabench-astronomy-easy-3/files/STORM-AI/warmup/v2/Sat_Density/swarma-wu175-20150704_to_20150707.csv", "type": "csv"}], "count": 5, "query": "58214 storm.csv Starlink TLE input/space-track 58214_storm.csv 58214_quiet.csv"}
2026-05-17 19:12:28 | INFO | strands_evaluation.instrumentation.agent_plugins | 
--- Turn 2 (elapsed: 3.6s) ---
2026-05-17 19:12:30 | DEBUG | strands_evaluation.instrumentation.agent_plugins | Model response #2 [stop_reason=tool_use]
2026-05-17 19:12:30 | DEBUG | strands_evaluation.instrumentation.agent_plugins | Model response #2 [role=assistant block=1 tool_use] peek_multiple({"files": [{"s3_uri": "s3://sana-kramabench/datagov/kramabench-astronomy-easy-6/files/space-track/58214_storm.csv"}, {"s3_uri": "s3://sana-kramabench/datagov/kramabench-astronomy-easy-6/files/space-track/58214_quiet.csv"}], "max_rows": 50}) [toolUseId=call_vFWuzJdSX4fFiuJhgajjplmL]
2026-05-17 19:12:30 | INFO | strands_evaluation.instrumentation.agent_plugins | Executing: peek_multiple({"files": [{"s3_uri": "s3://sana-kramabench/datagov/kramabench-astronomy-easy-6/files/space-track/58214_storm.csv"}, {"s3_uri": "s3://sana-kramabench/datagov/kramabench-astronomy-easy-6/files/space-track/58214_quiet.csv"}], "max_rows": 50})
2026-05-17 19:12:31 | DEBUG | strands_evaluation.instrumentation.agent_plugins | Tool result: {"results": [{"dataset_id": "kramabench-astronomy-easy-6", "file_path": "files/space-track/58214_storm.csv", "s3_uri": "s3://sana-kramabench/datagov/kramabench-astronomy-easy-6/files/space-track/58214_storm.csv", "size_bytes": 8029, "family": "csv", "preview_text": "CCSDS_OMM_VERS,COMMENT,CREATION_DATE,ORIGINATOR,OBJECT_NAME,OBJECT_ID,CENTER_NAME,REF_FRAME,TIME_SYSTEM,MEAN_ELEMENT_THEORY,EPOCH,MEAN_MOTION,ECCENTRICITY,INCLINATION,RA_OF_ASC_NODE,ARG_OF_PERICENTER,MEAN_ANOMALY,EPHEMERIS_TYPE,CLASSIFICATION_TYPE,NORAD_CAT_ID,ELEMENT_SET_NO,REV_AT_EPOCH,BSTAR,MEAN_MOTION_DOT,MEAN_MOTION_DDOT,SEMIMAJOR_AXIS,PERIOD,APOAPSIS,PERIAPSIS,OBJECT_TYPE,RCS_SIZE,COUNTRY_CODE,LAUNCH_DATE,SITE,DECAY_DATE,FILE,GP_ID,TLE_LINE0,TLE_LINE1,TLE_LINE2\n\"2.0\",\"GENERATED VIA SPACE-TRACK.ORG API\",\"2024-05-10T17:44:02\",\"18 SPCS\",\"STARLINK-30805\",\"2023-170J\",\"EARTH\",\"TEME\",\"UTC\",\"SGP4\",\"2024-05-10T13:03:59.806080\",\"15.02537535\",\"0.00028990\",\"43.0080\",\"226.3847\",\"278.1214\",\"81.9299\",\"0\",\"U\",\"58214\",\"999\",\"2977\",\"-0.00026920000000\",\"-0.00003839\",\"0.0000000000000\",\"6937.212\",\"95.838\",\"561.088\",\"557.066\",\"PAYLOAD\",\"LARGE\",\"US\",\"2023-11-03\",\"AFETR\",\"\",\"4312738\",\"256888979\",\"0 STARLINK-30805\",\"1 58214U 23170J   24131.54444220 -.00003839  00000-0 -26920-3 0  9996\",\"2 58214  43.0080 226.3847 0002899 278.1214  81.9299 15.02537535 29771\"\n\"2.0\",\"GENERATED VIA SPACE-TRACK.ORG API\",\"2024-05-11T02:49:57\",\"18 SPCS\",\"STARLINK-30805\",\"2023-170J\",\"EARTH\",\"TEME\",\"UTC\",\"SGP4\",\"2024-05-10T16:15:27.229536\",\"15.02540313\",\"0.00014720\",\"43.0037\",\"225.6614\",\"276.8779\",\"83.1896\",\"0\",\"U\",\"58214\",\"999\",\"2979\",\"-0.00009585500000\",\"-0.00001498\",\"0.0000000000000\",\"6937.203\",\"95.838\",\"560.089\",\"558.047\",\"PAYLOAD\",\"LARGE\",\"US\",\"2023-11-03\",\"AFETR\",\"\",\"4313042\",\"256923769\",\"0 STARLINK-30805\",\"1 58214U 23170J   24131.67739849 -.00001498  00000-0 -95855-4 0  9997\",\"2 58214...
2026-05-17 19:12:31 | INFO | strands_evaluation.instrumentation.agent_plugins | 
--- Turn 3 (elapsed: 6.6s) ---
2026-05-17 19:12:35 | DEBUG | strands_evaluation.instrumentation.agent_plugins | Model response #3 [stop_reason=tool_use]
2026-05-17 19:12:35 | DEBUG | strands_evaluation.instrumentation.agent_plugins | Model response #3 [role=assistant block=1 tool_use] download({"files": [{"s3_uri": "s3://sana-kramabench/datagov/kramabench-astronomy-easy-6/files/space-track/58214_storm.csv"}, {"s3_uri": "s3://sana-kramabench/datagov/kramabench-astronomy-easy-6/files/space-track/58214_quiet.csv"}]}) [toolUseId=call_DLlaYuW3woF9nLF5b0ykNjEC]
2026-05-17 19:12:35 | INFO | strands_evaluation.instrumentation.agent_plugins | Executing: download({"files": [{"s3_uri": "s3://sana-kramabench/datagov/kramabench-astronomy-easy-6/files/space-track/58214_storm.csv"}, {"s3_uri": "s3://sana-kramabench/datagov/kramabench-astronomy-easy-6/files/space-track/58214_quiet.csv"}]})
2026-05-17 19:12:47 | DEBUG | strands_evaluation.instrumentation.agent_plugins | Tool result: {"downloaded": [{"local_path": "/home/ec2-user/eval_eqa/exploratory-qa-eval/.sandbox_isolated/task_1749125_1779045144980/kramabench-astronomy-easy-6/files/space-track/58214_storm.csv", "file_path": "files/space-track/58214_storm.csv", "dataset_id": "kramabench-astronomy-easy-6", "s3_uri": "s3://sana-kramabench/datagov/kramabench-astronomy-easy-6/files/space-track/58214_storm.csv", "size": 8029, "status": "downloaded"}, {"local_path": "/home/ec2-user/eval_eqa/exploratory-qa-eval/.sandbox_isolated/task_1749125_1779045144980/kramabench-astronomy-easy-6/files/space-track/58214_quiet.csv", "file_path": "files/space-track/58214_quiet.csv", "dataset_id": "kramabench-astronomy-easy-6", "s3_uri": "s3://sana-kramabench/datagov/kramabench-astronomy-easy-6/files/space-track/58214_quiet.csv", "size": 5115, "status": "downloaded"}], "download_count": 2, "sandbox_dir": "/home/ec2-user/eval_eqa/exploratory-qa-eval/.sandbox_isolated/task_1749125_1779045144980", "path_map": {"s3://sana-kramabench/datagov/kramabench-astronomy-easy-6/files/space-track/58214_storm.csv": "/home/ec2-user/eval_eqa/exploratory-qa-eval/.sandbox_isolated/task_1749125_1779045144980/kramabench-astronomy-easy-6/files/space-track/58214_storm.csv", "kramabench-astronomy-easy-6/files/space-track/58214_storm.csv": "/home/ec2-user/eval_eqa/exploratory-qa-eval/.sandbox_isolated/task_1749125_1779045144980/kramabench-astronomy-easy-6/files/space-track/58214_storm.csv", "kramabench-astronomy-easy-6:files/space-track/58214_storm.csv": "/home/ec2-user/eval_eqa/exploratory-qa-eval/.sandbox_isolated/task_1749125_1779045144980/kramabench-astronomy-easy-6/files/space-track/58214_storm.csv", "s3://sana-kramabench/datagov/kramabench-astronomy-easy-6/files/space-track/58214_quiet.csv": "/home/ec2-user/eval_eqa/exploratory-qa-eval/.sandbox_isolated/task_1749125_1779045144980/kramabench-astronomy-easy-6/files/space-track/58214_quiet.csv", "kramabench-astronomy-easy-6/files/space-track/58214_quiet.csv": "/home/ec2-user/eval_eqa/expl...
2026-05-17 19:12:47 | INFO | strands_evaluation.instrumentation.agent_plugins | 
--- Turn 4 (elapsed: 22.8s) ---
2026-05-17 19:12:56 | DEBUG | strands_evaluation.instrumentation.agent_plugins | Model response #4 [stop_reason=tool_use]
